*******************************************************************************
Ephemeris / WWW_USER Thu Dec  5 18:35:09 2024 Pasadena, USA      / Horizons    
*******************************************************************************
Target body name: Titan (606)                     {source: sat441l}
Center body name: Earth (399)                     {source: DE441}
Center-site name: Mauna Kea
*******************************************************************************
Start time      : A.D. 2018-Nov-21 03:51:00.0000 UT      
Stop  time      : A.D. 2018-Nov-21 16:24:00.0000 UT      
Step-size       : 1 minutes
*******************************************************************************
Target pole/equ : IAU_TITAN                       {West-longitude positive}
Target radii    : 2575.15, 2574.78, 2574.47 km    {Equator_a, b, pole_c}       
Center geodetic : 204.5278, 19.8260847, 4.21024   {E-lon(deg),Lat(deg),Alt(km)}
Center cylindric: 204.5278, 6006.35451, 2151.0229 {E-lon(deg),Dxy(km),Dz(km)}
Center pole/equ : ITRF93                          {East-longitude positive}
Center radii    : 6378.137, 6378.137, 6356.752 km {Equator_a, b, pole_c}       
Target primary  : Saturn
Vis. interferer : MOON (R_eq= 1737.400) km        {source: DE441}
Rel. light bend : Sun                             {source: DE441}
Rel. lght bnd GM: 1.3271E+11 km^3/s^2                                          
Atmos refraction: NO (AIRLESS)
RA format       : HMS
Time format     : CAL 
Calendar mode   : Mixed Julian/Gregorian
RTS-only print  : NO       
EOP file        : eop.241205.p250303                                           
EOP coverage    : DATA-BASED 1962-JAN-20 TO 2024-DEC-05. PREDICTS-> 2025-MAR-02
Units conversion: 1 au= 149597870.700 km, c= 299792.458 km/s, 1 day= 86400.0 s 
Table cut-offs 1: Elevation (-90.0deg=NO ),Airmass (>38.000=NO), Daylight (YES)
Table cut-offs 2: Solar elongation (  0.0,180.0=NO ),Local Hour Angle( 0.0=NO )
Table cut-offs 3: RA/DEC angular rate (     0.0=NO )                           
*******************************************************************************
 Date__(UT)__HR:MN     R.A._________(ICRF)_________DEC
******************************************************
$$SOE
 2018-Nov-21 15:36 A   18 28 44.814852 -22 44 27.81974
 2018-Nov-21 15:37 A   18 28 44.832684 -22 44 27.82992
 2018-Nov-21 15:38 A   18 28 44.850515 -22 44 27.84010
 2018-Nov-21 15:39 A   18 28 44.868344 -22 44 27.85029
 2018-Nov-21 15:40 A   18 28 44.886172 -22 44 27.86048
 2018-Nov-21 15:41 A   18 28 44.903998 -22 44 27.87067
 2018-Nov-21 15:42 A   18 28 44.921823 -22 44 27.88086
 2018-Nov-21 15:43 A   18 28 44.939646 -22 44 27.89105
 2018-Nov-21 15:44 N   18 28 44.957468 -22 44 27.90125
 2018-Nov-21 15:45 N   18 28 44.975289 -22 44 27.91145
 2018-Nov-21 15:46 N   18 28 44.993108 -22 44 27.92164
 2018-Nov-21 15:47 N   18 28 45.010925 -22 44 27.93184
 2018-Nov-21 15:48 N   18 28 45.028741 -22 44 27.94204
 2018-Nov-21 15:49 N   18 28 45.046556 -22 44 27.95225
 2018-Nov-21 15:50 N   18 28 45.064369 -22 44 27.96245
 2018-Nov-21 15:51 N   18 28 45.082180 -22 44 27.97266
 2018-Nov-21 15:52 N   18 28 45.099990 -22 44 27.98286
 2018-Nov-21 15:53 N   18 28 45.117799 -22 44 27.99307
 2018-Nov-21 15:54 N   18 28 45.135606 -22 44 28.00328
 2018-Nov-21 15:55 N   18 28 45.153411 -22 44 28.01349
 2018-Nov-21 15:56 N   18 28 45.171215 -22 44 28.02370
 2018-Nov-21 15:57 N   18 28 45.189018 -22 44 28.03392
 2018-Nov-21 15:58 N   18 28 45.206819 -22 44 28.04413
 2018-Nov-21 15:59 N   18 28 45.224618 -22 44 28.05435
 2018-Nov-21 16:00 N   18 28 45.242416 -22 44 28.06457
 2018-Nov-21 16:01 N   18 28 45.260212 -22 44 28.07478
 2018-Nov-21 16:02 N   18 28 45.278007 -22 44 28.08500
 2018-Nov-21 16:03 N   18 28 45.295801 -22 44 28.09522
 2018-Nov-21 16:04 N   18 28 45.313592 -22 44 28.10545
 2018-Nov-21 16:05 N   18 28 45.331383 -22 44 28.11567
 2018-Nov-21 16:06 N   18 28 45.349171 -22 44 28.12590
 2018-Nov-21 16:07 N   18 28 45.366958 -22 44 28.13612
 2018-Nov-21 16:08 N   18 28 45.384744 -22 44 28.14635
 2018-Nov-21 16:09 N   18 28 45.402528 -22 44 28.15658
 2018-Nov-21 16:10 N   18 28 45.420310 -22 44 28.16680
 2018-Nov-21 16:11 C   18 28 45.438091 -22 44 28.17703
 2018-Nov-21 16:12 C   18 28 45.455871 -22 44 28.18727
 2018-Nov-21 16:13 C   18 28 45.473648 -22 44 28.19750
 2018-Nov-21 16:14 C   18 28 45.491425 -22 44 28.20773
 2018-Nov-21 16:15 C   18 28 45.509199 -22 44 28.21796
 2018-Nov-21 16:16 C   18 28 45.526972 -22 44 28.22820
 2018-Nov-21 16:17 C   18 28 45.544744 -22 44 28.23844
 2018-Nov-21 16:18 C   18 28 45.562514 -22 44 28.24867
 2018-Nov-21 16:19 C   18 28 45.580282 -22 44 28.25891
 2018-Nov-21 16:20 C   18 28 45.598049 -22 44 28.26915
 2018-Nov-21 16:21 C   18 28 45.615814 -22 44 28.27939
 2018-Nov-21 16:22 C   18 28 45.633578 -22 44 28.28963
 2018-Nov-21 16:23 C   18 28 45.651340 -22 44 28.29987
 2018-Nov-21 16:24 C   18 28 45.669100 -22 44 28.31011
